{
    "links": {
        "self": "http://www.neowsapp.com/rest/v1/neo/3600479?api_key=iIulBulltgU6a56xZRHN4H3l9WmuAYTsLGpBGhQ2"
    },
    "id": "3600479",
    "neo_reference_id": "3600479",
    "name": "(2012 EM1)",
    "designation": "2012 EM1",
    "nasa_jpl_url": "http://ssd.jpl.nasa.gov/sbdb.cgi?sstr=3600479",
    "absolute_magnitude_h": 26.5,
    "estimated_diameter": {
        "kilometers": {
            "estimated_diameter_min": 0.0133215567,
            "estimated_diameter_max": 0.0297879063
        },
        "meters": {
            "estimated_diameter_min": 13.3215566698,
            "estimated_diameter_max": 29.7879062798
        },
        "miles": {
            "estimated_diameter_min": 0.008277629,
            "estimated_diameter_max": 0.0185093411
        },
        "feet": {
            "estimated_diameter_min": 43.7058959846,
            "estimated_diameter_max": 97.7293544391
        }
    },
    "is_potentially_hazardous_asteroid": false,
    "close_approach_data": [
        {
            "close_approach_date": "2012-03-06",
            "close_approach_date_full": "2012-Mar-06 20:17",
            "epoch_date_close_approach": 1331065020000,
            "relative_velocity": {
                "kilometers_per_second": "6.4728607135",
                "kilometers_per_hour": "23302.2985686904",
                "miles_per_hour": "14479.1421300843"
            },
            "miss_distance": {
                "astronomical": "0.0196003597",
                "lunar": "7.6245399233",
                "kilometers": "2932172.062353839",
                "miles": "1821967.2338034182"
            },
            "orbiting_body": "Earth"
        },
        {
            "close_approach_date": "2046-05-15",
            "close_approach_date_full": "2046-May-15 03:29",
            "epoch_date_close_approach": 2409967740000,
            "relative_velocity": {
                "kilometers_per_second": "13.3679015313",
                "kilometers_per_hour": "48124.4455127221",
                "miles_per_hour": "29902.6589353911"
            },
            "miss_distance": {
                "astronomical": "0.2335690729",
                "lunar": "90.8583693581",
                "kilometers": "34941435.803714723",
                "miles": "21711601.4280922574"
            },
            "orbiting_body": "Earth"
        }
    ],
    "orbital_data": {
        "orbit_id": "6",
        "orbit_determination_date": "2017-04-06 08:50:40",
        "first_observation_date": "2012-03-02",
        "last_observation_date": "2012-03-07",
        "data_arc_in_days": 5,
        "observations_used": 37,
        "orbit_uncertainty": "8",
        "minimum_orbit_intersection": ".00990927",
        "jupiter_tisserand_invariant": "4.043",
        "epoch_osculation": "2455989.5",
        "eccentricity": ".4253410308565743",
        "semi_major_axis": "1.735535042349925",
        "inclination": "2.127752044632539",
        "ascending_node_longitude": "342.2085729486934",
        "orbital_period": "835.1192745865376",
        "perihelion_distance": ".9973407783490993",
        "perihelion_argument": "200.5266334607658",
        "aphelion_distance": "2.47372930635075",
        "perihelion_time": "2456006.670858186418",
        "mean_anomaly": "352.5980525953363",
        "mean_motion": ".4310761479888412",
        "equinox": "J2000",
        "orbit_class": {
            "orbit_class_type": "APO",
            "orbit_class_description": "Near-Earth asteroid orbits which cross the Earth’s orbit similar to that of 1862 Apollo",
            "orbit_class_range": "a (semi-major axis) > 1.0 AU; q (perihelion) < 1.017 AU"
        }
    },
    "is_sentry_object": false
}